{
    "links": {
        "self": "http://www.neowsapp.com/rest/v1/neo/3545787?api_key=iIulBulltgU6a56xZRHN4H3l9WmuAYTsLGpBGhQ2"
    },
    "id": "3545787",
    "neo_reference_id": "3545787",
    "name": "(2010 RX45)",
    "designation": "2010 RX45",
    "nasa_jpl_url": "http://ssd.jpl.nasa.gov/sbdb.cgi?sstr=3545787",
    "absolute_magnitude_h": 25.4,
    "estimated_diameter": {
        "kilometers": {
            "estimated_diameter_min": 0.022108281,
            "estimated_diameter_max": 0.0494356193
        },
        "meters": {
            "estimated_diameter_min": 22.1082810359,
            "estimated_diameter_max": 49.435619262
        },
        "miles": {
            "estimated_diameter_min": 0.0137374447,
            "estimated_diameter_max": 0.0307178602
        },
        "feet": {
            "estimated_diameter_min": 72.5337327539,
            "estimated_diameter_max": 162.1903570994
        }
    },
    "is_potentially_hazardous_asteroid": false,
    "close_approach_data": [
        {
            "close_approach_date": "2010-09-04",
            "close_approach_date_full": "2010-Sep-04 10:27",
            "epoch_date_close_approach": 1283596020000,
            "relative_velocity": {
                "kilometers_per_second": "9.2207368499",
                "kilometers_per_hour": "33194.6526596367",
                "miles_per_hour": "20625.8662595393"
            },
            "miss_distance": {
                "astronomical": "0.0400729",
                "lunar": "15.5883581",
                "kilometers": "5994820.484723",
                "miles": "3725008.7182574"
            },
            "orbiting_body": "Earth"
        }
    ],
    "orbital_data": {
        "orbit_id": "9",
        "orbit_determination_date": "2017-04-06 08:56:46",
        "first_observation_date": "2010-09-08",
        "last_observation_date": "2010-09-15",
        "data_arc_in_days": 7,
        "observations_used": 28,
        "orbit_uncertainty": "8",
        "minimum_orbit_intersection": ".0394034",
        "jupiter_tisserand_invariant": "3.462",
        "epoch_osculation": "2455449.5",
        "eccentricity": ".5253059066732351",
        "semi_major_axis": "2.187363629618825",
        "inclination": "11.01631068982186",
        "ascending_node_longitude": "167.2093222828486",
        "orbital_period": "1181.62564178338",
        "perihelion_distance": "1.03832859493785",
        "perihelion_argument": "164.8650364561789",
        "aphelion_distance": "3.336398664299801",
        "perihelion_time": "2455435.340847155284",
        "mean_anomaly": "4.313798587177422",
        "mean_motion": ".3046650201807287",
        "equinox": "J2000",
        "orbit_class": {
            "orbit_class_type": "AMO",
            "orbit_class_description": "Near-Earth asteroid orbits similar to that of 1221 Amor",
            "orbit_class_range": "1.017 AU < q (perihelion) < 1.3 AU"
        }
    },
    "is_sentry_object": false
}